{"fetched_at":"2026-03-30T09:12:31Z","count":15922,"tles":[{"name":"STARLINK-32179","line1":"1 60734U 24152Q   26087.75007382  .00002370  00000+0  92094-4 0  9998","line2":"2 60734  53.1615 180.2809 0001078  84.8921 275.2203 15.30201980 89635","category":"Starlink"}]}