{
  "norad_id": 60734,
  "name": "STARLINK-32179",
  "history": [
    {
      "epoch": "2026-03-28T18:00:06.378048Z",
      "apogee_km": 475.94794821837604,
      "perigee_km": 474.470366786818,
      "latitude_deg": 1.909179701438466e-05,
      "longitude_deg": 84.08829666284703,
      "height_km": 476.0418837121163,
      "semi_major_axis_km": 6853.346157502597,
      "eccentricity": 0.0001078,
      "inclination_deg": 53.1615,
      "raan_deg": 180.2809,
      "arg_perigee_deg": 84.8921,
      "mean_anomaly_deg": 275.2203,
      "mean_motion_rev_day": 15.3020198
    }
  ]
}